start=new Date('2022-10-01T00:00:00.000Z').valueOf();
sats=[{"RA_OF_ASC_NODE":"12.5845","COUNTRY_CODE":"US","PERIAPSIS":"538.752","MEAN_MOTION":"15.08850139","DECAY_DATE":null,"GP_ID":"213908208","RCS_SIZE":"LARGE","NORAD_CAT_ID":"52579","CLASSIFICATION_TYPE":"U","LAUNCH_DATE":"2022-05-13","MEAN_ELEMENT_THEORY":"SGP4","MEAN_ANOMALY":"273.3680","APOAPSIS":"540.677","INCLINATION":"53.2194","SEMIMAJOR_AXIS":"6917.849","BSTAR":"0.00011942000000","CENTER_NAME":"EARTH","TIME_SYSTEM":"UTC","MEAN_MOTION_DOT":"0.00001614","FILE":"3587966","SITE":"AFWTR","REV_AT_EPOCH":"2176","REF_FRAME":"TEME","ARG_OF_PERICENTER":"86.7472","ECCENTRICITY":"0.00013910","MEAN_MOTION_DDOT":"0.0000000000000","EPHEMERIS_TYPE":"0","PERIOD":"95.437","OBJECT_ID":"2022-051AV","OBJECT_TYPE":"PAYLOAD","TLE_LINE1":"1 52579U 22051AV  22273.67824164  .00001614  00000-0  11942-3 0  9994","OBJECT_NAME":"STARLINK-3893","ELEMENT_SET_NO":"999","TLE_LINE2":"2 52579  53.2194  12.5845 0001391  86.7472 273.3680 15.08850139 21762","EPOCH":"2022-09-30T16:16:40.077696"},{"APOAPSIS":"540.882","INCLINATION":"53.2197","SEMIMAJOR_AXIS":"6917.847","CLASSIFICATION_TYPE":"U","MEAN_ELEMENT_THEORY":"SGP4","LAUNCH_DATE":"2022-05-13","MEAN_ANOMALY":"315.5124","NORAD_CAT_ID":"52580","DECAY_DATE":null,"GP_ID":"213908432","RCS_SIZE":"LARGE","PERIAPSIS":"538.541","MEAN_MOTION":"15.08851038","COUNTRY_CODE":"US","RA_OF_ASC_NODE":"12.5684","TLE_LINE2":"2 52580  53.2197  12.5684 0001692  44.6004 315.5124 15.08851038 21767","ELEMENT_SET_NO":"999","EPOCH":"2022-09-30T16:21:59.354208","TLE_LINE1":"1 52580U 22051AW  22273.68193697 -.00001848  00000-0 -98016-4 0  9996","OBJECT_NAME":"STARLINK-3919","EPHEMERIS_TYPE":"0","PERIOD":"95.437","OBJECT_ID":"2022-051AW","OBJECT_TYPE":"PAYLOAD","ECCENTRICITY":"0.00016920","MEAN_MOTION_DDOT":"0.0000000000000","REV_AT_EPOCH":"2176","REF_FRAME":"TEME","ARG_OF_PERICENTER":"44.6004","TIME_SYSTEM":"UTC","MEAN_MOTION_DOT":"-0.00001848","FILE":"3587966","SITE":"AFWTR","CENTER_NAME":"EARTH","BSTAR":"-0.00009801600000"},{"EPHEMERIS_TYPE":"0","OBJECT_TYPE":"PAYLOAD","OBJECT_ID":"2022-051AX","PERIOD":"95.437","MEAN_MOTION_DDOT":"0.0000000000000","ECCENTRICITY":"0.00018150","ELEMENT_SET_NO":"999","TLE_LINE2":"2 52581  53.2186 358.3750 0001815  36.8502 323.2615 15.08846818 22014","EPOCH":"2022-09-30T11:56:21.841728","TLE_LINE1":"1 52581U 22051AX  22273.49747502 -.00001215  00000-0 -58224-4 0  9991","OBJECT_NAME":"STARLINK-3915","CENTER_NAME":"EARTH","BSTAR":"-0.00005822400000","REV_AT_EPOCH":"2201","ARG_OF_PERICENTER":"36.8502","REF_FRAME":"TEME","TIME_SYSTEM":"UTC","MEAN_MOTION_DOT":"-0.00001215","SITE":"AFWTR","FILE":"3587766","MEAN_ELEMENT_THEORY":"SGP4","LAUNCH_DATE":"2022-05-13","CLASSIFICATION_TYPE":"U","MEAN_ANOMALY":"323.2615","NORAD_CAT_ID":"52581","INCLINATION":"53.2186","APOAPSIS":"540.980","SEMIMAJOR_AXIS":"6917.860","COUNTRY_CODE":"US","RA_OF_ASC_NODE":"358.3750","GP_ID":"213879460","DECAY_DATE":null,"RCS_SIZE":"LARGE","PERIAPSIS":"538.469","MEAN_MOTION":"15.08846818"},{"CENTER_NAME":"EARTH","BSTAR":"0.00010724000000","ARG_OF_PERICENTER":"46.5422","REF_FRAME":"TEME","REV_AT_EPOCH":"2203","FILE":"3587766","SITE":"AFWTR","MEAN_MOTION_DOT":"0.00001419","TIME_SYSTEM":"UTC","PERIOD":"95.437","OBJECT_ID":"2022-051AY","OBJECT_TYPE":"PAYLOAD","EPHEMERIS_TYPE":"0","ECCENTRICITY":"0.00021700","MEAN_MOTION_DDOT":"0.0000000000000","EPOCH":"2022-09-30T15:17:43.433664","ELEMENT_SET_NO":"999","TLE_LINE2":"2 52582  53.2194 357.7488 0002170  46.5422 313.5750 15.08849563 22033","OBJECT_NAME":"STARLINK-3886","TLE_LINE1":"1 52582U 22051AY  22273.63730826  .00001419  00000-0  10724-3 0  9995","COUNTRY_CODE":"US","RA_OF_ASC_NODE":"357.7488","RCS_SIZE":"LARGE","DECAY_DATE":null,"GP_ID":"213879462","MEAN_MOTION":"15.08849563","PERIAPSIS":"538.215","MEAN_ANOMALY":"313.5750","CLASSIFICATION_TYPE":"U","LAUNCH_DATE":"2022-05-13","MEAN_ELEMENT_THEORY":"SGP4","NORAD_CAT_ID":"52582","SEMIMAJOR_AXIS":"6917.851","INCLINATION":"53.2194","APOAPSIS":"541.217"},{"MEAN_MOTION_DOT":"0.00002624","TIME_SYSTEM":"UTC","SITE":"AFWTR","FILE":"3587966","REV_AT_EPOCH":"2196","ARG_OF_PERICENTER":"58.9554","REF_FRAME":"TEME","BSTAR":"0.00018281000000","CENTER_NAME":"EARTH","OBJECT_NAME":"STARLINK-3895","TLE_LINE1":"1 52583U 22051AZ  22273.62627281  .00002624  00000-0  18281-3 0  9990","ELEMENT_SET_NO":"999","TLE_LINE2":"2 52583  53.2205 357.8009 0001708  58.9554 301.1606 15.08855033 21969","EPOCH":"2022-09-30T15:01:49.970784","MEAN_MOTION_DDOT":"0.0000000000000","ECCENTRICITY":"0.00017080","EPHEMERIS_TYPE":"0","OBJECT_TYPE":"PAYLOAD","PERIOD":"95.437","OBJECT_ID":"2022-051AZ","PERIAPSIS":"538.518","MEAN_MOTION":"15.08855033","GP_ID":"213908624","DECAY_DATE":null,"RCS_SIZE":"LARGE","RA_OF_ASC_NODE":"357.8009","COUNTRY_CODE":"US","INCLINATION":"53.2205","APOAPSIS":"540.881","SEMIMAJOR_AXIS":"6917.834","NORAD_CAT_ID":"52583","LAUNCH_DATE":"2022-05-13","MEAN_ELEMENT_THEORY":"SGP4","CLASSIFICATION_TYPE":"U","MEAN_ANOMALY":"301.1606"},{"OBJECT_TYPE":"PAYLOAD","PERIOD":"95.438","OBJECT_ID":"2022-051BA","EPHEMERIS_TYPE":"0","MEAN_MOTION_DDOT":"0.0000000000000","ECCENTRICITY":"0.00017260","EPOCH":"2022-09-30T12:01:41.270304","TLE_LINE2":"2 52584  53.2200 358.3611 0001726  37.6070 322.5042 15.08838168 22015","ELEMENT_SET_NO":"999","OBJECT_NAME":"STARLINK-3922","TLE_LINE1":"1 52584U 22051BA  22273.50117211 -.00002241  00000-0 -12276-3 0  9990","CENTER_NAME":"EARTH","BSTAR":"-0.00012276000000","REF_FRAME":"TEME","ARG_OF_PERICENTER":"37.6070","REV_AT_EPOCH":"2201","SITE":"AFWTR","FILE":"3587767","MEAN_MOTION_DOT":"-0.00002241","TIME_SYSTEM":"UTC","MEAN_ANOMALY":"322.5042","LAUNCH_DATE":"2022-05-13","MEAN_ELEMENT_THEORY":"SGP4","CLASSIFICATION_TYPE":"U","NORAD_CAT_ID":"52584","SEMIMAJOR_AXIS":"6917.886","APOAPSIS":"540.945","INCLINATION":"53.2200","COUNTRY_CODE":"US","RA_OF_ASC_NODE":"358.3611","RCS_SIZE":"LARGE","GP_ID":"213879472","DECAY_DATE":null,"MEAN_MOTION":"15.08838168","PERIAPSIS":"538.557"},{"BSTAR":"0.00015081000000","CENTER_NAME":"EARTH","SITE":"AFWTR","FILE":"3587966","MEAN_MOTION_DOT":"0.00002114","TIME_SYSTEM":"UTC","REF_FRAME":"TEME","ARG_OF_PERICENTER":"48.8321","REV_AT_EPOCH":"2196","MEAN_MOTION_DDOT":"0.0000000000000","ECCENTRICITY":"0.00017040","OBJECT_TYPE":"PAYLOAD","PERIOD":"95.437","OBJECT_ID":"2022-051BB","EPHEMERIS_TYPE":"0","OBJECT_NAME":"STARLINK-3906","TLE_LINE1":"1 52585U 22051BB  22273.61891463  .00002114  00000-0  15081-3 0  9995","EPOCH":"2022-09-30T14:51:14.224032","TLE_LINE2":"2 52585  53.2195 357.8413 0001704  48.8321 311.2817 15.08854935 21960","ELEMENT_SET_NO":"999","RA_OF_ASC_NODE":"357.8413","COUNTRY_CODE":"US","MEAN_MOTION":"15.08854935","PERIAPSIS":"538.521","RCS_SIZE":"LARGE","GP_ID":"213908456","DECAY_DATE":null,"NORAD_CAT_ID":"52585","MEAN_ANOMALY":"311.2817","MEAN_ELEMENT_THEORY":"SGP4","LAUNCH_DATE":"2022-05-13","CLASSIFICATION_TYPE":"U","SEMIMAJOR_AXIS":"6917.835","INCLINATION":"53.2195","APOAPSIS":"540.879"},{"RA_OF_ASC_NODE":"356.9258","COUNTRY_CODE":"US","MEAN_MOTION":"15.08863069","PERIAPSIS":"538.606","RCS_SIZE":"LARGE","DECAY_DATE":null,"GP_ID":"213908793","NORAD_CAT_ID":"52586","MEAN_ANOMALY":"311.3743","CLASSIFICATION_TYPE":"U","LAUNCH_DATE":"2022-05-13","MEAN_ELEMENT_THEORY":"SGP4","SEMIMAJOR_AXIS":"6917.810","APOAPSIS":"540.744","INCLINATION":"53.2185","BSTAR":"0.00127850000000","CENTER_NAME":"EARTH","FILE":"3587966","SITE":"AFWTR","MEAN_MOTION_DOT":"0.00020131","TIME_SYSTEM":"UTC","REF_FRAME":"TEME","ARG_OF_PERICENTER":"48.7382","REV_AT_EPOCH":"2199","ECCENTRICITY":"0.00015450","MEAN_MOTION_DDOT":"0.0000000000000","PERIOD":"95.436","OBJECT_ID":"2022-051BC","OBJECT_TYPE":"PAYLOAD","EPHEMERIS_TYPE":"0","TLE_LINE1":"1 52586U 22051BC  22273.82132482  .00020131  00000-0  12785-2 0  9994","OBJECT_NAME":"STARLINK-3910","EPOCH":"2022-09-30T19:42:42.464448","TLE_LINE2":"2 52586  53.2185 356.9258 0001545  48.7382 311.3743 15.08863069 21996","ELEMENT_SET_NO":"999"},{"MEAN_ELEMENT_THEORY":"SGP4","LAUNCH_DATE":"2022-05-13","CLASSIFICATION_TYPE":"U","MEAN_ANOMALY":"315.4465","NORAD_CAT_ID":"52587","APOAPSIS":"541.106","INCLINATION":"53.2210","SEMIMAJOR_AXIS":"6917.851","COUNTRY_CODE":"US","RA_OF_ASC_NODE":"357.5635","GP_ID":"213908209","DECAY_DATE":null,"RCS_SIZE":"LARGE","PERIAPSIS":"538.326","MEAN_MOTION":"15.08849646","EPHEMERIS_TYPE":"0","OBJECT_TYPE":"PAYLOAD","OBJECT_ID":"2022-051BD","PERIOD":"95.437","MEAN_MOTION_DDOT":"0.0000000000000","ECCENTRICITY":"0.00020090","TLE_LINE2":"2 52587  53.2210 357.5635 0002009  44.6689 315.4465 15.08849646 21972","ELEMENT_SET_NO":"999","EPOCH":"2022-09-30T16:21:18.982080","OBJECT_NAME":"STARLINK-3867","TLE_LINE1":"1 52587U 22051BD  22273.68146970  .00001491  00000-0  11172-3 0  9994","CENTER_NAME":"EARTH","BSTAR":"0.00011172000000","REV_AT_EPOCH":"2197","ARG_OF_PERICENTER":"44.6689","REF_FRAME":"TEME","TIME_SYSTEM":"UTC","MEAN_MOTION_DOT":"0.00001491","SITE":"AFWTR","FILE":"3587966"},{"GP_ID":"213908433","DECAY_DATE":null,"RCS_SIZE":"LARGE","PERIAPSIS":"538.544","MEAN_MOTION":"15.08843732","COUNTRY_CODE":"US","RA_OF_ASC_NODE":"357.5828","APOAPSIS":"540.924","INCLINATION":"53.2195","SEMIMAJOR_AXIS":"6917.869","LAUNCH_DATE":"2022-05-13","MEAN_ELEMENT_THEORY":"SGP4","CLASSIFICATION_TYPE":"U","MEAN_ANOMALY":"306.2008","NORAD_CAT_ID":"52588","REV_AT_EPOCH":"2197","ARG_OF_PERICENTER":"53.9144","REF_FRAME":"TEME","MEAN_MOTION_DOT":"0.00002982","TIME_SYSTEM":"UTC","SITE":"AFWTR","FILE":"3587966","CENTER_NAME":"EARTH","BSTAR":"0.00020537000000","TLE_LINE2":"2 52588  53.2195 357.5828 0001720  53.9144 306.2008 15.08843732 21978","ELEMENT_SET_NO":"999","EPOCH":"2022-09-30T16:16:01.583040","OBJECT_NAME":"STARLINK-3917","TLE_LINE1":"1 52588U 22051BE  22273.67779610  .00002982  00000-0  20537-3 0  9998","EPHEMERIS_TYPE":"0","OBJECT_TYPE":"PAYLOAD","PERIOD":"95.437","OBJECT_ID":"2022-051BE","MEAN_MOTION_DDOT":"0.0000000000000","ECCENTRICITY":"0.00017200"}];
